{
    "CCSDS_OMM_VERS": "3.0",
    "COMMENT": "GENERATED VIA SPACE-TRACK.ORG API",
    "CREATION_DATE": "2025-11-23T21:08:43",
    "ORIGINATOR": "18 SPCS",
    "OBJECT_NAME": "BEIDOU 3M25",
    "OBJECT_ID": "2024-168B",
    "CENTER_NAME": "EARTH",
    "REF_FRAME": "TEME",
    "TIME_SYSTEM": "UTC",
    "MEAN_ELEMENT_THEORY": "SGP4",
    "EPOCH": "2025-11-23T05:44:31.432416",
    "MEAN_MOTION": "1.86230276",
    "ECCENTRICITY": "0.00055850",
    "INCLINATION": "54.6598",
    "RA_OF_ASC_NODE": "309.3964",
    "ARG_OF_PERICENTER": "292.3383",
    "MEAN_ANOMALY": "48.4542",
    "EPHEMERIS_TYPE": "0",
    "CLASSIFICATION_TYPE": "U",
    "NORAD_CAT_ID": "61186",
    "ELEMENT_SET_NO": "999",
    "REV_AT_EPOCH": "794",
    "BSTAR": "0.00000000000000",
    "MEAN_MOTION_DOT": "-0.00000054",
    "MEAN_MOTION_DDOT": "0.0000000000000",
    "SEMIMAJOR_AXIS": "27906.261",
    "PERIOD": "773.236",
    "APOAPSIS": "21543.712",
    "PERIAPSIS": "21512.540",
    "OBJECT_TYPE": "PAYLOAD",
    "RCS_SIZE": null,
    "COUNTRY_CODE": "PRC",
    "LAUNCH_DATE": "2024-09-19",
    "SITE": "XSC",
    "DECAY_DATE": null,
    "FILE": "4896238",
    "GP_ID": "303344949",
    "TLE_LINE0": "0 BEIDOU 3M25",
    "TLE_LINE1": "1 61186U 24168B   25327.23925269 -.00000054  00000-0  00000-0 0  9990",
    "TLE_LINE2": "2 61186  54.6598 309.3964 0005585 292.3383  48.4542  1.86230276  7940"
}